CCSDS_OEM_VERS = 1.0
CREATION_DATE  = 2017-05-11T11:22:05
ORIGINATOR     = GMAT USER

META_START
OBJECT_NAME          = MOPSSat_alt_35785_km_RAAN_90_154
OBJECT_ID            = SatId
CENTER_NAME          = Earth
REF_FRAME            = EME2000
TIME_SYSTEM          = UTC
START_TIME           = 2017-01-01T00:00:00.000
USEABLE_START_TIME   = 2017-01-01T00:00:00.000
USEABLE_STOP_TIME    = 2017-01-02T00:00:00.000
STOP_TIME            = 2017-01-02T00:00:00.000
INTERPOLATION        = Lagrange
INTERPOLATION_DEGREE = 7 
META_STOP


                                                                                   

2017-01-01T01:22:30.000  -2.272928029341627e+04   1.190298084320336e+04   7.937172558471336e+02  -3.419126770845614e+00  -3.145962704333057e+00   1.193932316327979e-01
2017-01-01T01:22:40.000  -2.276344478075852e+04   1.187150721028490e+04   7.949102529021565e+02  -3.413770863802784e+00  -3.148761663092662e+00   1.192061851849925e-01
2017-01-01T01:22:50.000  -2.279755571803668e+04   1.184000565054389e+04   7.961013798074856e+02  -3.408416769969353e+00  -3.151548080682007e+00   1.190192021110480e-01
2017-01-01T01:23:00.000  -2.283161312324920e+04   1.180847628949618e+04   7.972906371921932e+02  -3.403064516028131e+00  -3.154321985781086e+00   1.188322833428150e-01
2017-01-01T01:23:10.000  -2.286561701457917e+04   1.177691925244597e+04   7.984780256918011e+02  -3.397714128502748e+00  -3.157083407079751e+00   1.186454298065833e-01
2017-01-01T01:23:20.000  -2.289956741117298e+04   1.174533466376164e+04   7.996635459754681e+02  -3.392365633635422e+00  -3.159832373340260e+00   1.184586424188133e-01
2017-01-01T01:23:30.000  -2.293346433235579e+04   1.171372264760116e+04   8.008471987185967e+02  -3.387019057510623e+00  -3.162568913332793e+00   1.182719220904543e-01
2017-01-01T01:23:40.000  -2.296730779783237e+04   1.168208332772496e+04   8.020289846098478e+02  -3.381674426023820e+00  -3.165293055851191e+00   1.180852697258541e-01
2017-01-01T01:23:50.000  -2.300109782713906e+04   1.165041682799786e+04   8.032089043320010e+02  -3.376331764967603e+00  -3.168004829667246e+00   1.178986862257654e-01
2017-01-01T01:24:00.000  -2.303483444009393e+04   1.161872327197515e+04   8.043869585776740e+02  -3.370991099961603e+00  -3.170704263567174e+00   1.177121724848993e-01
2017-01-01T01:24:10.000  -2.306851765669072e+04   1.158700278299771e+04   8.055631480456203e+02  -3.365652456469332e+00  -3.173391386342172e+00   1.175257293925134e-01
2017-01-01T01:24:20.000  -2.310214749714075e+04   1.155525548415663e+04   8.067374734421905e+02  -3.360315859792340e+00  -3.176066226791700e+00   1.173393578322070e-01
2017-01-01T01:24:30.000  -2.313572398188690e+04   1.152348149827373e+04   8.079099354818258e+02  -3.354981335067881e+00  -3.178728813723483e+00   1.171530586818404e-01
2017-01-01T01:24:40.000  -2.316924713164234e+04   1.149168094786349e+04   8.090805348884030e+02  -3.349648907263106e+00  -3.181379175955930e+00   1.169668328133317e-01
2017-01-01T01:24:50.000  -2.320271696741065e+04   1.145985395511668e+04   8.102492723959407e+02  -3.344318601172512e+00  -3.184017342319550e+00   1.167806810925679e-01
2017-01-01T01:25:00.000  -2.323613351051975e+04   1.142800064186098e+04   8.114161487497863e+02  -3.338990441412393e+00  -3.186643341658436e+00   1.165946043792110e-01
2017-01-01T01:25:10.000  -2.326949678252037e+04   1.139612112965843e+04   8.125811647030671e+02  -3.333664452437527e+00  -3.189257202821882e+00   1.164086035272808e-01
2017-01-01T01:25:20.000  -2.330280680561874e+04   1.136421553938269e+04   8.137443210317999e+02  -3.328340658471788e+00  -3.191858954696869e+00   1.162226793827318e-01
2017-01-01T01:25:30.000  -2.333606360214738e+04   1.133228399173065e+04   8.149056185164130e+02  -3.323019083593551e+00  -3.194448626166767e+00   1.160368327864357e-01
2017-01-01T01:25:40.000  -2.336926719476340e+04   1.130032660702919e+04   8.160650579486705e+02  -3.317699751704173e+00  -3.197026246126045e+00   1.158510645730805e-01
2017-01-01T01:25:50.000  -2.340241760567021e+04   1.126834350598223e+04   8.172226401044938e+02  -3.312382686652964e+00  -3.199591843419184e+00   1.156653755755353e-01
2017-01-01T01:26:00.000  -2.343551485739300e+04   1.123633480892390e+04   8.183783657710403e+02  -3.307067912113356e+00  -3.202145446900402e+00   1.154797666205256e-01
2017-01-01T01:26:10.000  -2.346855897257601e+04   1.120430063601096e+04   8.195322357396274e+02  -3.301755451615613e+00  -3.204687085417210e+00   1.152942385297752e-01
2017-01-01T01:26:20.000  -2.350154997451459e+04   1.117224110671420e+04   8.206842508243067e+02  -3.296445328462319e+00  -3.207216787851626e+00   1.151087921170556e-01
2017-01-01T01:26:30.000  -2.353448788671219e+04   1.114015634023770e+04   8.218344118463991e+02  -3.291137565799223e+00  -3.209734583084646e+00   1.149234281906593e-01
2017-01-01T01:26:40.000  -2.356737273298072e+04   1.110804645542221e+04   8.229827196379968e+02  -3.285832186599610e+00  -3.212240500003602e+00   1.147381475528547e-01
2017-01-01T01:26:50.000  -2.360020453739638e+04   1.107591157078110e+04   8.241291750404220e+02  -3.280529213671293e+00  -3.214734567497648e+00   1.145529510001300e-01
2017-01-01T01:27:00.000  -2.363298332428273e+04   1.104375180451985e+04   8.252737789036321e+02  -3.275228669660044e+00  -3.217216814456352e+00   1.143678393233127e-01
2017-01-01T01:27:10.000  -2.366570911816973e+04   1.101156727457445e+04   8.264165320847970e+02  -3.269930577056511e+00  -3.219687269766018e+00   1.141828133078120e-01
2017-01-01T01:27:20.000  -2.369838194377089e+04   1.097935809862808e+04   8.275574354474930e+02  -3.264634958199928e+00  -3.222145962306957e+00   1.139978737337473e-01
2017-01-01T01:27:30.000  -2.373100182594688e+04   1.094712439415075e+04   8.286964898604371e+02  -3.259341835284743e+00  -3.224592920950728e+00   1.138130213761809e-01
2017-01-01T01:27:40.000  -2.376356878980154e+04   1.091486627830069e+04   8.298336962008374e+02  -3.254051230345208e+00  -3.227028174566574e+00   1.136282570045786e-01
2017-01-01T01:27:50.000  -2.379608286025640e+04   1.088258386835189e+04   8.309690553395369e+02  -3.248763165325430e+00  -3.229451751989817e+00   1.134435813852571e-01
2017-01-01T01:28:00.000  -2.382854406256401e+04   1.085027728117662e+04   8.321025681589385e+02  -3.243477661995720e+00  -3.231863682058951e+00   1.132589952784624e-01
2017-01-01T01:28:10.000  -2.386095242211431e+04   1.081794663343772e+04   8.332342355462412e+02  -3.238194741984545e+00  -3.234263993600828e+00   1.130744994394850e-01
2017-01-01T01:28:20.000  -2.389330796517918e+04   1.078559204084519e+04   8.343640584194426e+02  -3.232914426657552e+00  -3.236652715485349e+00   1.128900946144362e-01
2017-01-01T01:28:30.000  -2.392561071816619e+04   1.075321361889760e+04   8.354920377012799e+02  -3.227636737239436e+00  -3.239029876569520e+00   1.127057815445032e-01
2017-01-01T01:28:40.000  -2.395786070778687e+04   1.072081148271463e+04   8.366181743251011e+02  -3.222361694787001e+00  -3.241395505709567e+00   1.125215609650088e-01
2017-01-01T01:28:50.000  -2.399005796063009e+04   1.068838574745349e+04   8.377424692199747e+02  -3.217089320258439e+00  -3.243749631728080e+00   1.123374336078304e-01
2017-01-01T01:29:00.000  -2.402220250347821e+04   1.065593652800086e+04   8.388649233217251e+02  -3.211819634462818e+00  -3.246092283437764e+00   1.121534001996368e-01
2017-01-01T01:29:10.000  -2.405429436330262e+04   1.062346393897166e+04   8.399855375727769e+02  -3.206552658060826e+00  -3.248423489640194e+00   1.119694614619132e-01
2017-01-01T01:29:20.000  -2.408633356696060e+04   1.059096809502446e+04   8.411043129115726e+02  -3.201288411615650e+00  -3.250743279104309e+00   1.117856181127388e-01
2017-01-01T01:29:30.000  -2.411832014160292e+04   1.055844911043810e+04   8.422212502868005e+02  -3.196026915525697e+00  -3.253051680594557e+00   1.116018708644367e-01
2017-01-01T01:29:40.000  -2.415025411451022e+04   1.052590709927827e+04   8.433363506516856e+02  -3.190768190051968e+00  -3.255348722858780e+00   1.114182204245302e-01
2017-01-01T01:29:50.000  -2.418213551381251e+04   1.049334217466335e+04   8.444496149891137e+02  -3.185512255199962e+00  -3.257634434679522e+00   1.112346674916189e-01
2017-01-01T01:30:00.000  -2.421396436776630e+04   1.046075444949856e+04   8.455610442863848e+02  -3.180259130838986e+00  -3.259908844821425e+00   1.110512127595444e-01
2017-01-01T01:30:10.000  -2.424574070491706e+04   1.042814403631056e+04   8.466706395408928e+02  -3.175008836675861e+00  -3.262171982042623e+00   1.108678569164730e-01
2017-01-01T01:30:20.000  -2.427746455367904e+04   1.039551104766681e+04   8.477784017454477e+02  -3.169761392323905e+00  -3.264423875063297e+00   1.106846006473041e-01
2017-01-01T01:30:30.000  -2.430913594264676e+04   1.036285559586531e+04   8.488843318991559e+02  -3.164516817252640e+00  -3.266664552588455e+00   1.105014446319144e-01
2017-01-01T01:30:40.000  -2.434075490059069e+04   1.033017779293356e+04   8.499884310072659e+02  -3.159275130788544e+00  -3.268894043306753e+00   1.103183895451840e-01
2017-01-01T01:30:50.000  -2.437232145615864e+04   1.029747775094585e+04   8.510907000707452e+02  -3.154036352165673e+00  -3.271112375869983e+00   1.101354360587637e-01
2017-01-01T01:31:00.000  -2.440383563827727e+04   1.026475558159740e+04   8.521911401002980e+02  -3.148800500458722e+00  -3.273319578919983e+00   1.099525848387383e-01
2017-01-01T01:31:10.000  -2.443529747598806e+04   1.023201139637517e+04   8.532897521106373e+02  -3.143567594610779e+00  -3.275515681076879e+00   1.097698365465953e-01
2017-01-01T01:31:20.000  -2.446670699916777e+04   1.019924530580676e+04   8.543865371456451e+02  -3.138337653313848e+00  -3.277700710988950e+00   1.095871918350522e-01
2017-01-01T01:31:30.000  -2.449806423780280e+04   1.016645742021355e+04   8.554814962530311e+02  -3.133110695129844e+00  -3.279874697281454e+00   1.094046513522825e-01
